[{"OBJECT_NAME":"STARLINK-4454","OBJECT_ID":"2022-099AL","EPOCH":"2026-03-09T21:07:03.605376","MEAN_MOTION":15.05646203,"ECCENTRICITY":7.42e-5,"INCLINATION":97.604,"RA_OF_ASC_NODE":191.4609,"ARG_OF_PERICENTER":230.7408,"MEAN_ANOMALY":129.3753,"EPHEMERIS_TYPE":0,"CLASSIFICATION_TYPE":"U","NORAD_CAT_ID":53499,"ELEMENT_SET_NO":999,"REV_AT_EPOCH":19608,"BSTAR":3.8063679e-5,"MEAN_MOTION_DOT":4.88e-6,"MEAN_MOTION_DDOT":0},{"OBJECT_NAME":"FENGYUN 1C DEB","OBJECT_ID":"1999-025ZJ","EPOCH":"2026-03-09T08:54:25.088544","MEAN_MOTION":14.24354874,"ECCENTRICITY":0.03682357,"INCLINATION":98.8184,"RA_OF_ASC_NODE":25.2526,"ARG_OF_PERICENTER":224.9546,"MEAN_ANOMALY":267.1531,"EPHEMERIS_TYPE":0,"CLASSIFICATION_TYPE":"U","NORAD_CAT_ID":30297,"ELEMENT_SET_NO":999,"REV_AT_EPOCH":96384,"BSTAR":0.0019862484,"MEAN_MOTION_DOT":9.295e-5,"MEAN_MOTION_DDOT":0}]
